DMSP 5D-2 F14 (USA 131) 
1 24753U 97012A   19237.50887338  .00000047  00000-0  47263-4 0  9991
2 24753  99.0319 245.3290 0008225 333.6568  26.4186 14.15861317156444
NOAA 15                 
1 25338U 98030A   19237.55125393  .00000021  00000-0  27641-4 0  9993
2 25338  98.7445 258.6869 0011278  50.3058 309.9115 14.25927920106921
DMSP 5D-3 F15 (USA 147) 
1 25991U 99067A   19237.56969066 -.00000105  00000-0 -29875-4 0  9999
2 25991  98.9243 202.3689 0008979 221.7616 253.7380 14.16518631 18419
METEOSAT-8 (MSG-1)      
1 27509U 02040B   19237.63977600  .00000131  00000-0  00000+0 0  9993
2 27509   6.2055  55.3091 0000563 146.9766  43.2755  1.00281353 62309
DMSP 5D-3 F16 (USA 172) 
1 28054U 03048A   19237.54523326 -.00000106  00000-0 -32628-4 0  9990
2 28054  98.8722 213.2354 0007560 353.9477 115.0773 14.13678854817943
NOAA 18                 
1 28654U 05018A   19237.57043963  .00000072  00000-0  63971-4 0  9997
2 28654  99.0903 285.5379 0013969 351.1485   8.9438 14.12446937735098
METEOSAT-9 (MSG-2)      
1 28912U 05049B   19237.29469153  .00000013  00000-0  00000+0 0  9994
2 28912   3.7987  71.0633 0001567  63.1569 308.5231  1.00276230 50139
HIMAWARI-7 (MTSAT-2)    
1 28937U 06004A   19236.90161552 -.00000248  00000-0  00000-0 0  9994
2 28937   0.0781 276.0351 0003737 239.3113 287.1008  1.00269528 49533
FORMOSAT-3 FM6          
1 29047U 06011A   19237.53617923 -.00000016  00000-0  10017-4 0  9999
2 29047  71.9807 355.9854 0051188 215.5400 144.2323 14.28691706698933
FORMOSAT-3 FM1          
1 29048U 06011B   19236.49712772 -.00000019  00000-0  87122-5 0  9997
2 29048  71.9650 269.3687 0043450 175.6642 184.4880 14.28645971701256
FORMOSAT-3 FM5          
1 29049U 06011C   19236.93501967  .00000037  00000-0  30879-4 0  9994
2 29049  72.0193  78.4322 0035610 204.2669 155.6792 14.28732239697107
FORMOSAT-3 FM3          
1 29050U 06011D   19237.50873243  .00000089  00000-0  29145-4 0  9990
2 29050  72.0138 253.6854 0048626 146.4847 213.9399 14.58823861713128
FORMOSAT-3 FM4          
1 29051U 06011E   19237.50141856  .00000028  00000-0  26785-4 0  9999
2 29051  72.0075 339.8970 0066606  77.8854 282.9734 14.28759569699771
FORMOSAT-3 FM2          
1 29052U 06011F   19236.89189343  .00000023  00000-0  25222-4 0  9994
2 29052  72.0340  54.4555 0039728 164.1370 196.1022 14.28858982697193
GOES 13                 
1 29155U 06018A   19237.58606233  .00000031  00000-0  00000+0 0  9995
2 29155   0.0530 304.7063 0007646 298.7563 182.3809  0.99973573 48575
METOP-A                 
1 29499U 06044A   19236.92229337 -.00000025  00000-0  82651-5 0  9990
2 29499  98.5693 288.1833 0001642  79.2790  76.6336 14.21481511666439
DMSP 5D-3 F17 (USA 191) 
1 29522U 06050A   19237.57558185 -.00000034  00000-0  52759-5 0  9998
2 29522  98.8188 253.1872 0009048 306.0120  54.0213 14.13999532660772
FENGYUN 3A              
1 32958U 08026A   19236.71060327 -.00000040  00000-0  15114-6 0  9993
2 32958  98.3830 233.2868 0009745 117.4440 242.7720 14.18606113582615
FENGYUN 2E              
1 33463U 08066A   19237.52667830 -.00000210  00000-0  00000+0 0  9991
2 33463   3.7301  69.1446 0003574 255.6632 285.0938  1.00271243 39145
NOAA 19                 
1 33591U 09005A   19237.55600838  .00000059  00000-0  57554-4 0  9996
2 33591  99.1839 230.3337 0013818 183.9827 176.1236 14.12372862543488
GOES 14                 
1 35491U 09033A   19237.53846644 -.00000099  00000-0  00000+0 0  9997
2 35491   0.4019 278.0159 0011643 296.8100 208.1170  1.00275312 37214
METEOR-M 1              
1 35865U 09049A   19237.48977021  .00000027  00000-0  30797-4 0  9998
2 35865  98.4154 232.5763 0002247   8.8087 351.3131 14.22204808515711
DMSP 5D-3 F18 (USA 210) 
1 35951U 09057A   19237.53392871  .00000049  00000-0  48858-4 0  9994
2 35951  98.6233 232.7920 0011957 131.7455 228.4742 14.13216353508067
GOES 15                 
1 36411U 10008A   19237.52294525  .00000050  00000-0  00000+0 0  9994
2 36411   0.4087 278.7590 0002896 250.8877 223.6891  1.00273237 34728
COMS 1                  
1 36744U 10032A   19237.46317056 -.00000350  00000-0  00000+0 0  9992
2 36744   0.0230 117.9182 0000913  76.4310  73.9869  1.00272107 33709
FENGYUN 3B              
1 37214U 10059A   19237.41842307 -.00000013  00000-0  16766-4 0  9998
2 37214  99.0063 210.1943 0017573  31.8537 328.3697 14.15921875455641
SUOMI NPP               
1 37849U 11061A   19236.81534096  .00000002  00000-0  21778-4 0  9998
2 37849  98.7379 174.1101 0001495  72.4312 340.6742 14.19547864405407
FENGYUN 2F              
1 38049U 12002A   19236.88564245 -.00000361  00000-0  00000-0 0  9993
2 38049   1.3878  82.8194 0001254 163.5228 157.3306  1.00262360 27930
METEOSAT-10 (MSG-3)     
1 38552U 12035B   19237.29591282  .00000059  00000-0  00000+0 0  9997
2 38552   1.1329 342.3000 0001668 183.4806 283.4266  1.00273821 26276
METOP-B                 
1 38771U 12049A   19236.96925062 -.00000030  00000-0  64431-5 0  9999
2 38771  98.6978 295.3414 0002129 109.8422  17.3615 14.21494841359764
FENGYUN 3C              
1 39260U 13052A   19237.46441049 -.00000027  00000-0  79520-5 0  9993
2 39260  98.5976 294.0068 0010872 355.4416   4.6658 14.15871109306590
METEOR-M 2              
1 40069U 14037A   19237.47259319 -.00000039  00000-0  15735-5 0  9995
2 40069  98.5456 280.5786 0006644  68.6296 291.5590 14.20663907266048
HIMAWARI-8              
1 40267U 14060A   19236.91054924 -.00000281  00000-0  00000-0 0  9997
2 40267   0.0243 202.7613 0001061  22.1230 216.4409  1.00269776 17809
FENGYUN 2G              
1 40367U 14090A   19237.53660634 -.00000307  00000-0  00000+0 0  9999
2 40367   1.3864  99.4988 0002126 255.3834 270.9750  1.00282776 17092
METEOSAT-11 (MSG-4)     
1 40732U 15034A   19237.36581528 -.00000007  00000-0  00000+0 0  9996
2 40732   0.9076 253.8963 0002506 242.3587 328.7679  1.00275955 15080
ELEKTRO-L 2             
1 41105U 15074A   19237.52449740 -.00000104  00000-0  00000+0 0  9990
2 41105   0.5008 104.6520 0001421  33.2341 100.4863  1.00272507 13570
HIMAWARI-9              
1 41836U 16064A   19237.03729937 -.00000279  00000-0  00000+0 0  9999
2 41836   0.0392 302.0357 0000981 246.9743 298.1759  1.00273850 10357
GOES 16                 
1 41866U 16071A   19237.45366896 -.00000254  00000-0  00000+0 0  9990
2 41866   0.0292 329.7788 0000697 255.6303 196.1391  1.00273518 10165
FENGYUN 4A              
1 41882U 16077A   19236.91024898 -.00000335  00000-0  00000-0 0  9998
2 41882   0.0989  84.1598 0002102  54.3367 266.7834  1.00276050 10030
CYGFM05                 
1 41884U 16078A   19236.92581700  .00000161  00000-0  10281-4 0  9994
2 41884  34.9567 107.8443 0016846 268.7243  91.1538 15.14427955148974
CYGFM04                 
1 41885U 16078B   19236.93020586  .00000162  00000-0  10194-4 0  9990
2 41885  34.9500 102.6131 0015159 275.6995  84.1988 15.14935554149023
CYGFM02                 
1 41886U 16078C   19236.92323364  .00000170  00000-0  10602-4 0  9993
2 41886  34.9590 104.1850 0015926 272.7816  87.1072 15.14938116149013
CYGFM01                 
1 41887U 16078D   19236.92381637  .00000155  00000-0  99765-5 0  9992
2 41887  34.9534 108.5383 0017291 269.7492  90.1238 15.14244732148969
CYGFM08                 
1 41888U 16078E   19236.93090941  .00000163  00000-0  10318-4 0  9994
2 41888  34.9505 105.5194 0016434 274.3218  85.5615 15.14654131148988
CYGFM06                 
1 41889U 16078F   19236.90056771  .00000167  00000-0  10445-4 0  9990
2 41889  34.9585 103.0047 0014882 272.6131  87.2877 15.14928328149013
CYGFM07                 
1 41890U 16078G   19236.94484165  .00000143  00000-0  92259-5 0  9996
2 41890  34.9523 101.9611 0014637 275.2855  84.6186 15.14927232149029
CYGFM03                 
1 41891U 16078H   19236.93972567  .00000156  00000-0  98828-5 0  9996
2 41891  34.9556 102.1578 0014134 274.3265  85.5831 15.14927358149024
FENGYUN 3D              
1 43010U 17072A   19237.45504838 -.00000030  00000-0  62547-5 0  9997
2 43010  98.7160 175.6998 0001008 169.6254 190.4943 14.19724957 92053
NOAA 20                 
1 43013U 17073A   19237.47382660 -.00000026  00000-0  84851-5 0  9997
2 43013  98.7225 174.6100 0001545  87.3687 272.7666 14.19560979 91523
GOES 17                 
1 43226U 18022A   19237.51455329  .00000091  00000-0  00000+0 0  9995
2 43226   0.0165  54.5204 0000248 147.8370 179.1586  1.00272650  5493
FENGYUN 2H              
1 43491U 18050A   19237.09439793 -.00000132  00000-0  00000+0 0  9997
2 43491   1.3559 280.7233 0003473 243.4471 282.0327  1.00272120  4567
METOP-C                 
1 43689U 18087A   19236.78027844 -.00000044  00000-0  00000-0 0  9994
2 43689  98.6986 295.4759 0003281 117.7998 242.3511 14.21492815 41308
GEO-KOMPSAT-2A          
1 43823U 18100A   19237.46317056 -.00000350  00000-0  00000+0 0  9992
2 43823   0.0153 105.3417 0001499  16.7065 146.3809  1.00269023  2714
METEOR-M2 2             
1 44387U 19038A   19237.47442263 -.00000031  00000-0  50659-5 0  9996
2 44387  98.5736 199.2060 0000881 342.0867  18.0281 14.23333622  7286
